UNKNOWN                 
1 87706U          25346.98808911  .00006940  00000+0  12218-2 0  9996
2 87706  98.6727 170.5846 0104438 267.1034 247.1988 14.64392185578555
UNKNOWN                 
1 87725U          25347.47344768  .00112258  00000+0  95428-2 0  9991
2 87725  82.8664 255.1967 0019084  52.2524 308.0425 14.97151648634036
UNKNOWN                 
1 87730U          25346.44413364  .00000127  00000+0  11787-3 0  9990
2 87730  82.9452 234.3191 0030300   7.1465 353.0116 13.74505597585293
UNKNOWN                 
1 87737U          25346.92122268  .00000055  00000+0  10132-3 0  9993
2 87737  99.3743 218.7158 0132944 188.9253 170.9529 13.72340917603885
UNKNOWN                 
1 87764U          25345.23462301  .00013447  00000+0  22707-2 0  9990
2 87764  65.6732 166.6082 0360224  77.6247  96.7268 14.34805379618908
UNKNOWN                 
1 87771U          25344.79400047  .00000149  00000+0  47224-3 0  9994
2 87771 100.7428 180.9170 0119796   6.7749 353.4951 13.19516191534836
UNKNOWN                 
1 87782U          25346.91999328  .00003454  00000+0  11517-1 0  9993
2 87782 102.3403 218.5408 0049899 248.7479 110.8284 13.00415721568013
UNKNOWN                 
1 87843U          25347.14394888  .00002857  00000+0  66071-2 0  9999
2 87843  99.6629 101.2591 0231272   3.4413 356.8231 13.16548050564213
UNKNOWN                 
1 87845U          25342.10705815  .00001814  00000+0  34494-2 0  9994
2 87845  98.8572 300.5142 0576132 264.4497  89.0666 12.88910939564615
UNKNOWN                 
1 87878U          25345.10927906  .00006120  00000+0  19162-2 0  9990
2 87878  99.1579 104.4842 0035227 270.2487  89.4662 14.40690629611062
UNKNOWN                 
1 87884U          25342.02119548  .00000561  00000+0  32940-3 0  9993
2 87884  98.7350  86.0325 0154867  81.7201 280.1495 14.05981151617708
UNKNOWN                 
1 87991U          25342.10819293  .00005264  00000+0  10705-1 0  9993
2 87991  28.6246 279.5590 0884471   7.2268 354.0134 12.35048234522425
